ONEWEB-0283             
1 49001U 21060AL  24327.96818908  .00000082  00000+0  17979-3 0  9995
2 49001  87.9090 342.5940 0001938  87.0629 273.0723 13.16597152164453
ONEWEB-0284             
1 49002U 21060AM  24328.11385014  .00000132  00000+0  31226-3 0  9998
2 49002  87.9076 342.5398 0001642  96.1790 263.9528 13.16598387165764
ONEWEB-0285             
1 49075U 21075A   24328.80631003 -.00000079  00000+0 -25496-3 0  9996
2 49075  87.8868 104.2460 0001592 104.1547 255.9759 13.12441886161376
ONEWEB-0286             
1 49076U 21075B   24328.32035000 -.00000011  00000+0 -66911-4 0  9993
2 49076  87.8859 104.3396 0001509 102.0942 258.0356 13.12438991159681
ONEWEB-0287             
1 49077U 21075C   24328.35446509  .00000058  00000+0  11506-3 0  9995
2 49077  87.9079 119.5793 0001376  99.5210 260.6077 13.17647149158451
ONEWEB-0288             
1 49078U 21075D   24328.30656700  .00000329  00000+0  87925-3 0  9996
2 49078  87.8856 104.3450 0001301  99.3717 260.7559 13.12444647160300
ONEWEB-0289             
1 49079U 21075E   24328.38314953  .00000041  00000+0  72448-4 0  9992
2 49079  87.9071 119.6014 0001476  90.6740 269.4561 13.17651527159038
ONEWEB-0290             
1 49080U 21075F   24327.91065479  .00000080  00000+0  17338-3 0  9997
2 49080  87.9077 119.6554 0001019  73.0750 287.0493 13.17652217158388
